start=new Date('2022-09-23T00:00:00.000Z').valueOf();
sats=[{"ECCENTRICITY":"0.00031640","NORAD_CAT_ID":"49161","FILE":"3580347","EPOCH":"2022-09-22T05:59:35.405376","GP_ID":"213228820","BSTAR":"-0.00001241700000","ARG_OF_PERICENTER":"248.4212","COUNTRY_CODE":"US","PERIAPSIS":"569.825","CENTER_NAME":"EARTH","MEAN_ANOMALY":"111.6610","PERIOD":"96.106","DECAY_DATE":null,"TLE_LINE1":"1 49161U 21082AH  22265.24971534 -.00000241  00000-0 -12417-4 0  9994","SITE":"AFWTR","APOAPSIS":"574.223","REF_FRAME":"TEME","RA_OF_ASC_NODE":"242.5452","MEAN_MOTION_DOT":"-0.00000241","OBJECT_ID":"2021-082AH","RCS_SIZE":"LARGE","CLASSIFICATION_TYPE":"U","LAUNCH_DATE":"2021-09-14","MEAN_ELEMENT_THEORY":"SGP4","SEMIMAJOR_AXIS":"6950.159","EPHEMERIS_TYPE":"0","INCLINATION":"69.9992","REV_AT_EPOCH":"5765","ELEMENT_SET_NO":"999","OBJECT_TYPE":"PAYLOAD","TLE_LINE2":"2 49161  69.9992 242.5452 0003164 248.4212 111.6610 14.98341011 57659","OBJECT_NAME":"STARLINK-3080","MEAN_MOTION_DDOT":"0.0000000000000","MEAN_MOTION":"14.98341011","TIME_SYSTEM":"UTC"},{"TIME_SYSTEM":"UTC","MEAN_MOTION":"14.98326708","TLE_LINE2":"2 49162  69.9983 241.5628 0002774 260.8276  99.2569 14.98326708 57793","MEAN_MOTION_DDOT":"0.0000000000000","OBJECT_NAME":"STARLINK-3082","INCLINATION":"69.9983","REV_AT_EPOCH":"5779","OBJECT_TYPE":"PAYLOAD","ELEMENT_SET_NO":"999","SEMIMAJOR_AXIS":"6950.203","MEAN_ELEMENT_THEORY":"SGP4","EPHEMERIS_TYPE":"0","LAUNCH_DATE":"2021-09-14","RCS_SIZE":"LARGE","CLASSIFICATION_TYPE":"U","RA_OF_ASC_NODE":"241.5628","MEAN_MOTION_DOT":"0.00000111","OBJECT_ID":"2021-082AJ","REF_FRAME":"TEME","APOAPSIS":"573.996","TLE_LINE1":"1 49162U 21082AJ  22265.64074508  .00000111  00000-0  17100-4 0  9992","SITE":"AFWTR","DECAY_DATE":null,"PERIOD":"96.107","CENTER_NAME":"EARTH","MEAN_ANOMALY":"99.2569","ARG_OF_PERICENTER":"260.8276","PERIAPSIS":"570.140","COUNTRY_CODE":"US","BSTAR":"0.00001710000000","GP_ID":"213260369","EPOCH":"2022-09-22T15:22:40.374912","NORAD_CAT_ID":"49162","ECCENTRICITY":"0.00027740","FILE":"3580594"},{"OBJECT_NAME":"STARLINK-3088","TLE_LINE2":"2 49163  70.0022 220.9686 0003162 257.4565 102.6240 14.98386319 58320","MEAN_MOTION_DDOT":"0.0000000000000","INCLINATION":"70.0022","REV_AT_EPOCH":"5832","ELEMENT_SET_NO":"999","OBJECT_TYPE":"PAYLOAD","MEAN_MOTION":"14.98386319","TIME_SYSTEM":"UTC","RCS_SIZE":"LARGE","CLASSIFICATION_TYPE":"U","LAUNCH_DATE":"2021-09-14","MEAN_ELEMENT_THEORY":"SGP4","SEMIMAJOR_AXIS":"6950.019","EPHEMERIS_TYPE":"0","TLE_LINE1":"1 49163U 21082AK  22265.88048945 -.00008533  00000-0 -70717-3 0  9995","SITE":"AFWTR","MEAN_ANOMALY":"102.6240","CENTER_NAME":"EARTH","PERIOD":"96.103","DECAY_DATE":null,"RA_OF_ASC_NODE":"220.9686","MEAN_MOTION_DOT":"-0.00008533","OBJECT_ID":"2021-082AK","APOAPSIS":"574.081","REF_FRAME":"TEME","EPOCH":"2022-09-22T21:07:54.288480","GP_ID":"213261121","ECCENTRICITY":"0.00031620","NORAD_CAT_ID":"49163","FILE":"3580594","ARG_OF_PERICENTER":"257.4565","COUNTRY_CODE":"US","PERIAPSIS":"569.686","BSTAR":"-0.00070717000000"},{"PERIAPSIS":"570.085","COUNTRY_CODE":"US","ARG_OF_PERICENTER":"255.2076","BSTAR":"0.00002581000000","EPOCH":"2022-09-22T14:29:38.155776","GP_ID":"213261864","FILE":"3580594","NORAD_CAT_ID":"49164","ECCENTRICITY":"0.00028170","MEAN_MOTION_DOT":"0.00000215","OBJECT_ID":"2021-082AL","RA_OF_ASC_NODE":"221.6567","REF_FRAME":"TEME","APOAPSIS":"574.000","SITE":"AFWTR","TLE_LINE1":"1 49164U 21082AL  22265.60391384  .00000215  00000-0  25810-4 0  9996","DECAY_DATE":null,"PERIOD":"96.107","CENTER_NAME":"EARTH","MEAN_ANOMALY":"104.8771","EPHEMERIS_TYPE":"0","SEMIMAJOR_AXIS":"6950.178","MEAN_ELEMENT_THEORY":"SGP4","LAUNCH_DATE":"2021-09-14","RCS_SIZE":"LARGE","CLASSIFICATION_TYPE":"U","TIME_SYSTEM":"UTC","MEAN_MOTION":"14.98334941","MEAN_MOTION_DDOT":"0.0000000000000","TLE_LINE2":"2 49164  70.0045 221.6567 0002817 255.2076 104.8771 14.98334941 58294","OBJECT_NAME":"STARLINK-3106","OBJECT_TYPE":"PAYLOAD","ELEMENT_SET_NO":"999","INCLINATION":"70.0045","REV_AT_EPOCH":"5829"},{"MEAN_MOTION":"14.98327401","TIME_SYSTEM":"UTC","MEAN_MOTION_DDOT":"0.0000000000000","TLE_LINE2":"2 49165  69.9987 242.5864 0002959 252.4005 107.6830 14.98327401 57779","OBJECT_NAME":"STARLINK-3052","REV_AT_EPOCH":"5777","INCLINATION":"69.9987","ELEMENT_SET_NO":"999","OBJECT_TYPE":"PAYLOAD","MEAN_ELEMENT_THEORY":"SGP4","SEMIMAJOR_AXIS":"6950.201","EPHEMERIS_TYPE":"0","CLASSIFICATION_TYPE":"U","RCS_SIZE":"LARGE","LAUNCH_DATE":"2021-09-14","RA_OF_ASC_NODE":"242.5864","MEAN_MOTION_DOT":"-0.00000381","OBJECT_ID":"2021-082AM","APOAPSIS":"574.122","REF_FRAME":"TEME","TLE_LINE1":"1 49165U 21082AM  22265.23541360 -.00000381  00000-0 -24159-4 0  9998","SITE":"AFWTR","CENTER_NAME":"EARTH","MEAN_ANOMALY":"107.6830","PERIOD":"96.107","DECAY_DATE":null,"ARG_OF_PERICENTER":"252.4005","COUNTRY_CODE":"US","PERIAPSIS":"570.009","BSTAR":"-0.00002415900000","EPOCH":"2022-09-22T05:38:59.735040","GP_ID":"213229320","ECCENTRICITY":"0.00029590","NORAD_CAT_ID":"49165","FILE":"3580347"},{"ECCENTRICITY":"0.00032800","NORAD_CAT_ID":"49166","FILE":"3579752","GP_ID":"213191934","EPOCH":"2022-09-21T06:33:49.923072","BSTAR":"-0.00015350000000","ARG_OF_PERICENTER":"260.4697","COUNTRY_CODE":"US","PERIAPSIS":"569.777","CENTER_NAME":"EARTH","MEAN_ANOMALY":"99.6091","PERIOD":"96.107","DECAY_DATE":null,"TLE_LINE1":"1 49166U 21082AN  22264.27349448 -.00001924  00000-0 -15350-3 0  9991","SITE":"AFWTR","APOAPSIS":"574.337","REF_FRAME":"TEME","RA_OF_ASC_NODE":"225.0032","MEAN_MOTION_DOT":"-0.00001924","OBJECT_ID":"2021-082AN","RCS_SIZE":"LARGE","CLASSIFICATION_TYPE":"U","LAUNCH_DATE":"2021-09-14","MEAN_ELEMENT_THEORY":"SGP4","SEMIMAJOR_AXIS":"6950.192","EPHEMERIS_TYPE":"0","REV_AT_EPOCH":"5812","INCLINATION":"70.0030","ELEMENT_SET_NO":"999","OBJECT_TYPE":"PAYLOAD","OBJECT_NAME":"STARLINK-3089","TLE_LINE2":"2 49166  70.0030 225.0032 0003280 260.4697  99.6091 14.98330251 58125","MEAN_MOTION_DDOT":"0.0000000000000","MEAN_MOTION":"14.98330251","TIME_SYSTEM":"UTC"},{"LAUNCH_DATE":"2021-09-14","CLASSIFICATION_TYPE":"U","RCS_SIZE":"LARGE","SEMIMAJOR_AXIS":"6950.180","MEAN_ELEMENT_THEORY":"SGP4","EPHEMERIS_TYPE":"0","REV_AT_EPOCH":"5781","INCLINATION":"69.9991","OBJECT_TYPE":"PAYLOAD","ELEMENT_SET_NO":"999","TLE_LINE2":"2 49167  69.9991 241.9265 0003434 243.9216 116.1590 14.98334186 57813","MEAN_MOTION_DDOT":"0.0000000000000","OBJECT_NAME":"STARLINK-3054","TIME_SYSTEM":"UTC","MEAN_MOTION":"14.98334186","NORAD_CAT_ID":"49167","ECCENTRICITY":"0.00034340","FILE":"3580347","GP_ID":"213230322","EPOCH":"2022-09-22T11:56:39.426720","BSTAR":"-0.00000890510000","ARG_OF_PERICENTER":"243.9216","PERIAPSIS":"569.658","COUNTRY_CODE":"US","PERIOD":"96.107","DECAY_DATE":null,"MEAN_ANOMALY":"116.1590","CENTER_NAME":"EARTH","TLE_LINE1":"1 49167U 21082AP  22265.49767855 -.00000199  00000-0 -89051-5 0  9997","SITE":"AFWTR","REF_FRAME":"TEME","APOAPSIS":"574.432","RA_OF_ASC_NODE":"241.9265","OBJECT_ID":"2021-082AP","MEAN_MOTION_DOT":"-0.00000199"},{"ARG_OF_PERICENTER":"258.0833","PERIAPSIS":"569.798","COUNTRY_CODE":"US","BSTAR":"0.00007288300000","GP_ID":"213261372","EPOCH":"2022-09-22T22:16:34.337280","NORAD_CAT_ID":"49168","ECCENTRICITY":"0.00032390","FILE":"3580594","RA_OF_ASC_NODE":"220.8404","MEAN_MOTION_DOT":"0.00000777","OBJECT_ID":"2021-082AQ","REF_FRAME":"TEME","APOAPSIS":"574.301","TLE_LINE1":"1 49168U 21082AQ  22265.92817520  .00000777  00000-0  72883-4 0  9995","SITE":"AFWTR","DECAY_DATE":null,"PERIOD":"96.107","CENTER_NAME":"EARTH","MEAN_ANOMALY":"101.9963","SEMIMAJOR_AXIS":"6950.184","MEAN_ELEMENT_THEORY":"SGP4","EPHEMERIS_TYPE":"0","LAUNCH_DATE":"2021-09-14","CLASSIFICATION_TYPE":"U","RCS_SIZE":"LARGE","TIME_SYSTEM":"UTC","MEAN_MOTION":"14.98332718","MEAN_MOTION_DDOT":"0.0000000000000","TLE_LINE2":"2 49168  69.9988 220.8404 0003239 258.0833 101.9963 14.98332718 58373","OBJECT_NAME":"STARLINK-3101","REV_AT_EPOCH":"5837","INCLINATION":"69.9988","OBJECT_TYPE":"PAYLOAD","ELEMENT_SET_NO":"999"},{"ARG_OF_PERICENTER":"258.8719","PERIAPSIS":"569.809","COUNTRY_CODE":"US","BSTAR":"0.00028910000000","GP_ID":"213228821","EPOCH":"2022-09-22T09:34:21.451296","NORAD_CAT_ID":"49169","ECCENTRICITY":"0.00032070","FILE":"3580347","RA_OF_ASC_NODE":"222.1762","OBJECT_ID":"2021-082AR","MEAN_MOTION_DOT":"0.00003359","REF_FRAME":"TEME","APOAPSIS":"574.267","TLE_LINE1":"1 49169U 21082AR  22265.39885939  .00003359  00000-0  28910-3 0  9996","SITE":"AFWTR","PERIOD":"96.107","DECAY_DATE":null,"MEAN_ANOMALY":"101.2080","CENTER_NAME":"EARTH","SEMIMAJOR_AXIS":"6950.173","MEAN_ELEMENT_THEORY":"SGP4","EPHEMERIS_TYPE":"0","LAUNCH_DATE":"2021-09-14","RCS_SIZE":"LARGE","CLASSIFICATION_TYPE":"U","TIME_SYSTEM":"UTC","MEAN_MOTION":"14.98336527","TLE_LINE2":"2 49169  70.0000 222.1762 0003207 258.8719 101.2080 14.98336527 57093","MEAN_MOTION_DDOT":"0.0000000000000","OBJECT_NAME":"STARLINK-3046","INCLINATION":"70.0000","REV_AT_EPOCH":"5709","OBJECT_TYPE":"PAYLOAD","ELEMENT_SET_NO":"999"},{"REV_AT_EPOCH":"5657","INCLINATION":"69.9967","OBJECT_TYPE":"PAYLOAD","ELEMENT_SET_NO":"999","TLE_LINE2":"2 49170  69.9967 242.6508 0003200 254.8872 105.1933 14.98327359 56573","MEAN_MOTION_DDOT":"0.0000000000000","OBJECT_NAME":"STARLINK-3074","TIME_SYSTEM":"UTC","MEAN_MOTION":"14.98327359","LAUNCH_DATE":"2021-09-14","RCS_SIZE":"LARGE","CLASSIFICATION_TYPE":"U","SEMIMAJOR_AXIS":"6950.201","MEAN_ELEMENT_THEORY":"SGP4","EPHEMERIS_TYPE":"0","PERIOD":"96.107","DECAY_DATE":null,"MEAN_ANOMALY":"105.1933","CENTER_NAME":"EARTH","TLE_LINE1":"1 49170U 21082AS  22265.20474851 -.00000812  00000-0 -60236-4 0  9996","SITE":"AFWTR","REF_FRAME":"TEME","APOAPSIS":"574.290","RA_OF_ASC_NODE":"242.6508","MEAN_MOTION_DOT":"-0.00000812","OBJECT_ID":"2021-082AS","NORAD_CAT_ID":"49170","ECCENTRICITY":"0.00032000","FILE":"3579879","GP_ID":"213196663","EPOCH":"2022-09-22T04:54:50.271264","BSTAR":"-0.00006023600000","ARG_OF_PERICENTER":"254.8872","PERIAPSIS":"569.842","COUNTRY_CODE":"US"}];
